NORAD_CAT_ID,OBJECT_NAME,OBJECT_TYPE,EPOCH,MEAN_MOTION,ECCENTRICITY,INCLINATION,RA_OF_ASC_NODE,ARG_OF_PERICENTER,MEAN_ANOMALY,BSTAR,MEAN_MOTION_DOT,MEAN_MOTION_DDOT,TLE_LINE0,TLE_LINE1,TLE_LINE2,SEMIMAJOR_AXIS,PERIOD,APOGEE,PERIGEE,DECAYED
54187.0,STARLINK-5240,PAYLOAD,2023-10-31 21:59:23,15.08841253,0.0001641,53.2182,263.6181,88.4344,271.6837,0.00022224,3.251e-05,0.0,0 STARLINK-5240,1 54187U 22141AG  23304.91624149  .00003251  00000-0  22224-3 0  9999,2 54187  53.2182 263.6181 0001641  88.4344 271.6837 15.08841253 56066,6917.877,95.437,540.877,538.606,0.0
54187.0,STARLINK-5240,PAYLOAD,2023-11-01 07:31:41,15.08859801,0.0001629,53.2182,261.8338,94.877,265.2409,0.00037912,5.754e-05,0.0,0 STARLINK-5240,1 54187U 22141AG  23305.31367609  .00005754  00000-0  37912-3 0  9999,2 54187  53.2182 261.8338 0001629  94.8770 265.2409 15.08859801 56354,6917.82,95.436,540.812,538.558,0.0
54187.0,STARLINK-5240,PAYLOAD,2023-11-01 13:53:14,15.08850209,0.0001388,53.2182,260.6405,78.3964,281.7184,0.000432,6.596e-05,0.0,0 STARLINK-5240,1 54187U 22141AG  23305.57863702  .00006596  00000-0  43200-3 0  9994,2 54187  53.2182 260.6405 0001388  78.3964 281.7184 15.08850209 56165,6917.849,95.437,540.674,538.754,0.0
54187.0,STARLINK-5240,PAYLOAD,2023-11-01 21:50:10,15.08841781,0.0001573,53.2175,259.1587,91.0056,269.1116,0.00010381,1.365e-05,0.0,0 STARLINK-5240,1 54187U 22141AG  23305.90983940  .00001365  00000-0  10381-3 0  9991,2 54187  53.2175 259.1587 0001573  91.0056 269.1116 15.08841781 56217,6917.875,95.437,540.828,538.652,0.0
54187.0,STARLINK-5240,PAYLOAD,2023-11-02 04:11:42,15.08848534,0.0001554,53.2175,257.9706,99.4551,260.6617,0.00027851,4.148e-05,0.0,0 STARLINK-5240,1 54187U 22141AG  23306.17479757  .00004148  00000-0  27851-3 0  9999,2 54187  53.2175 257.9706 0001554  99.4551 260.6617 15.08848534 56481,6917.854,95.437,540.794,538.644,0.0
54187.0,STARLINK-5240,PAYLOAD,2023-11-02 13:44:01,15.08845895,0.0001438,53.2168,256.1848,96.407,263.7086,0.00015505,2.181e-05,0.0,0 STARLINK-5240,1 54187U 22141AG  23306.57223778  .00002181  00000-0  15505-3 0  9991,2 54187  53.2168 256.1848 0001438  96.4070 263.7086 15.08845895 56318,6917.862,95.437,540.722,538.733,0.0
54187.0,STARLINK-5240,PAYLOAD,2023-11-03 04:02:29,15.08847188,0.0001626,53.2174,253.5081,94.0857,266.0321,0.00016437,2.329e-05,0.0,0 STARLINK-5240,1 54187U 22141AG  23307.16839786  .00002329  00000-0  16437-3 0  9998,2 54187  53.2174 253.5081 0001626  94.0857 266.0321 15.08847188 56631,6917.858,95.437,540.848,538.599,0.0
54187.0,STARLINK-5240,PAYLOAD,2023-11-03 05:37:52,15.08849999,0.0001724,53.2179,253.2109,94.2375,265.8814,0.00028364,4.23e-05,0.0,0 STARLINK-5240,1 54187U 22141AG  23307.23463716  .00004230  00000-0  28364-3 0  9997,2 54187  53.2179 253.2109 0001724  94.2375 265.8814 15.08849999 56412,6917.85,95.437,540.907,538.522,0.0
54187.0,STARLINK-5240,PAYLOAD,2023-11-04 03:53:16,15.08847029,0.0001663,53.2167,249.0486,79.1844,280.9335,0.00042952,6.556e-05,0.0,0 STARLINK-5240,1 54187U 22141AG  23308.16200085  .00006556  00000-0  42952-3 0  9990,2 54187  53.2167 249.0486 0001663  79.1844 280.9335 15.08847029 56783,6917.859,95.437,540.874,538.573,0.0
54187.0,STARLINK-5240,PAYLOAD,2023-11-04 13:25:36,15.08819449,0.0002394,53.2167,247.2675,77.6364,282.4896,-0.00024528,-4.188e-05,0.0,0 STARLINK-5240,1 54187U 22141AG  23308.55945056 -.00004188  00000-0 -24528-3 0  9997,2 54187  53.2167 247.2675 0002394  77.6364 282.4896 15.08819449 56611,6917.943,95.439,541.464,538.152,0.0
54187.0,STARLINK-5240,PAYLOAD,2023-11-05 13:16:23,15.08859578,0.0001566,53.2159,242.8025,88.4679,271.6492,0.0017541,0.00027754,0.0,0 STARLINK-5240,1 54187U 22141AG  23309.55305215  .00027754  00000-0  17541-2 0  9993,2 54187  53.2159 242.8025 0001566  88.4679 271.6492 15.08859578 56766,6917.821,95.436,540.769,538.602,0.0
54187.0,STARLINK-5240,PAYLOAD,2023-11-06 01:59:26,15.08948231,0.0001761,53.2168,240.4219,99.9758,260.1433,0.0046712,0.00075069,0.0,0 STARLINK-5240,1 54187U 22141AG  23310.08294999  .00075069  00000-0  46712-2 0  9993,2 54187  53.2168 240.4219 0001761  99.9758 260.1433 15.08948231 57075,6917.55,95.431,540.633,538.196,0.0
54187.0,STARLINK-5240,PAYLOAD,2023-11-06 13:07:08,15.08885877,0.0002155,53.2166,238.3403,91.8034,268.3205,0.0012431,0.00019576,0.0,0 STARLINK-5240,1 54187U 22141AG  23310.54662708  .00019576  00000-0  12431-2 0  9993,2 54187  53.2166 238.3403 0002155  91.8034 268.3205 15.08885877 56915,6917.74,95.435,541.096,538.114,0.0
54187.0,STARLINK-5240,PAYLOAD,2023-11-06 22:39:29,15.08758276,0.0001422,53.2161,236.5578,98.6423,261.473,-0.0010303,-0.00016611,0.0,0 STARLINK-5240,1 54187U 22141AG  23310.94408830 -.00016611  00000-0 -10303-2 0  9996,2 54187  53.2161 236.5578 0001422  98.6423 261.4730 15.08758276 56971,6918.13,95.443,540.979,539.011,0.0
54187.0,STARLINK-5240,PAYLOAD,2023-11-07 01:50:16,15.0874941,0.0001389,53.2167,235.964,89.8736,270.2416,0.001479,0.0002327,0.0,0 STARLINK-5240,1 54187U 22141AG  23311.07658089  .00023270  00000-0  14790-2 0  9995,2 54187  53.2167 235.9640 0001389  89.8736 270.2416 15.08749410 57229,6918.157,95.443,540.983,539.061,0.0
54187.0,STARLINK-5240,PAYLOAD,2023-11-08 01:41:03,15.0890235,0.0001317,53.2167,231.5005,97.9379,262.1762,0.0042652,0.00068368,0.0,0 STARLINK-5240,1 54187U 22141AG  23312.07018284  .00068368  00000-0  42652-2 0  9998,2 54187  53.2167 231.5005 0001317  97.9379 262.1762 15.08902350 57374,6917.69,95.434,540.466,538.644,0.0
54187.0,STARLINK-5240,PAYLOAD,2023-11-08 22:21:03,15.08898208,0.000168,53.217,227.6394,119.8459,240.2701,0.0025472,0.00040549,0.0,0 STARLINK-5240,1 54187U 22141AG  23312.93128933  .00040549  00000-0  25472-2 0  9998,2 54187  53.2170 227.6394 0001680 119.8459 240.2701 15.08898208 57276,6917.702,95.434,540.73,538.405,0.0
54187.0,STARLINK-5240,PAYLOAD,2023-11-09 01:31:49,15.08874965,0.0001374,53.2168,227.0433,91.4701,268.6449,0.0021674,0.00034408,0.0,0 STARLINK-5240,1 54187U 22141AG  23313.06376753  .00034408  00000-0  21674-2 0  9995,2 54187  53.2168 227.0433 0001374  91.4701 268.6449 15.08874965 57521,6917.774,95.435,540.589,538.688,0.0
54187.0,STARLINK-5240,PAYLOAD,2023-11-09 22:11:50,15.08858892,0.0001333,53.2177,223.1837,101.5515,258.5627,0.0016013,0.00025302,0.0,0 STARLINK-5240,1 54187U 22141AG  23313.92488775  .00025302  00000-0  16013-2 0  9992,2 54187  53.2177 223.1837 0001333 101.5515 258.5627 15.08858892 57423,6917.823,95.436,540.61,538.765,0.0
54187.0,STARLINK-5240,PAYLOAD,2023-11-10 01:22:36,15.08845785,0.0001841,53.2169,222.5844,121.2712,238.8461,0.0010885,0.00017081,0.0,0 STARLINK-5240,1 54187U 22141AG  23314.05736626  .00017081  00000-0  10885-2 0  9994,2 54187  53.2169 222.5844 0001841 121.2712 238.8461 15.08845785 57678,6917.863,95.437,541.001,538.454,0.0
54187.0,STARLINK-5240,PAYLOAD,2023-11-10 10:54:55,15.08845837,0.0001253,53.2163,220.7973,103.4669,256.6463,0.0014017,0.00022094,0.0,0 STARLINK-5240,1 54187U 22141AG  23314.45480458  .00022094  00000-0  14017-2 0  9998,2 54187  53.2163 220.7973 0001253 103.4669 256.6463 15.08845837 57505,6917.863,95.437,540.594,538.861,0.0
54187.0,STARLINK-5240,PAYLOAD,2023-11-10 22:02:37,15.08833471,0.0001303,53.2163,218.718,109.5793,250.534,0.00068185,0.00010578,0.0,0 STARLINK-5240,1 54187U 22141AG  23314.91848933  .00010578  00000-0  68185-3 0  9995,2 54187  53.2163 218.7180 0001303 109.5793 250.5340 15.08833471 57578,6917.9,95.438,540.667,538.864,0.0
54187.0,STARLINK-5240,PAYLOAD,2023-11-11 02:48:46,15.08843704,0.0001406,53.2159,217.8253,103.3719,256.743,0.0014767,0.00023294,0.0,0 STARLINK-5240,1 54187U 22141AG  23315.11720937  .00023294  00000-0  14767-2 0  9996,2 54187  53.2159 217.8253 0001406 103.3719 256.7430 15.08843704 57835,6917.869,95.437,540.707,538.761,0.0
54187.0,STARLINK-5240,PAYLOAD,2023-11-11 10:45:42,15.08847009,0.0001731,53.2156,216.3376,91.895,268.224,0.0011181,0.00017555,0.0,0 STARLINK-5240,1 54187U 22141AG  23315.44841208  .00017555  00000-0  11181-2 0  9997,2 54187  53.2156 216.3376 0001731  91.8950 268.2240 15.08847009 57885,6917.859,95.437,540.921,538.526,0.0
54187.0,STARLINK-5240,PAYLOAD,2023-11-11 21:53:24,15.08840721,0.0001288,53.2158,214.2574,96.6232,263.4907,0.00096886,0.00015165,0.0,0 STARLINK-5240,1 54187U 22141AG  23315.91209218  .00015165  00000-0  96886-3 0  9999,2 54187  53.2158 214.2574 0001288  96.6232 263.4907 15.08840721 57721,6917.878,95.438,540.634,538.852,0.0
54187.0,STARLINK-5240,PAYLOAD,2023-11-12 02:39:34,15.08848362,0.0001411,53.216,213.3636,98.642,261.4732,0.00061965,9.59e-05,0.0,0 STARLINK-5240,1 54187U 22141AG  23316.11081080  .00009590  00000-0  61965-3 0  9992,2 54187  53.2160 213.3636 0001411  98.6420 261.4732 15.08848362 57983,6917.855,95.437,540.696,538.744,0.0
54187.0,STARLINK-5240,PAYLOAD,2023-11-12 10:36:29,15.08841255,0.0001486,53.216,211.8762,94.7668,265.3494,0.00041453,6.316e-05,0.0,0 STARLINK-5240,1 54187U 22141AG  23316.44201349  .00006316  00000-0  41453-3 0  9993,2 54187  53.2160 211.8762 0001486  94.7668 265.3494 15.08841255 58038,6917.877,95.437,540.77,538.714,0.0
54187.0,STARLINK-5240,PAYLOAD,2023-11-12 21:44:11,15.08847502,0.0001547,53.2156,209.7952,92.0155,268.1014,0.00054498,8.398e-05,0.0,0 STARLINK-5240,1 54187U 22141AG  23316.90569337  .00008398  00000-0  54498-3 0  9993,2 54187  53.2156 209.7952 0001547  92.0155 268.1014 15.08847502 57871,6917.857,95.437,540.793,538.652,0.0
54187.0,STARLINK-5240,PAYLOAD,2023-11-13 10:27:16,15.0884634,0.0001723,53.2174,207.4139,98.8789,261.2398,0.00045428,6.95e-05,0.0,0 STARLINK-5240,1 54187U 22141AG  23317.43561263  .00006950  00000-0  45428-3 0  9997,2 54187  53.2174 207.4139 0001723  98.8789 261.2398 15.08846340 57953,6917.861,95.437,540.918,538.534,0.0
54187.0,STARLINK-5240,PAYLOAD,2023-11-13 23:10:21,15.08844656,0.0001568,53.2161,205.0369,91.8818,268.2354,0.00021324,3.108e-05,0.0,0 STARLINK-5240,1 54187U 22141AG  23317.96553166  .00003108  00000-0  21324-3 0  9999,2 54187  53.2161 205.0369 0001568  91.8818 268.2354 15.08844656 58038,6917.866,95.437,540.816,538.646,0.0
